NORAD_CAT_ID,OBJECT_NAME,OBJECT_TYPE,EPOCH,MEAN_MOTION,ECCENTRICITY,INCLINATION,RA_OF_ASC_NODE,ARG_OF_PERICENTER,MEAN_ANOMALY,BSTAR,MEAN_MOTION_DOT,MEAN_MOTION_DDOT,TLE_LINE0,TLE_LINE1,TLE_LINE2,SEMIMAJOR_AXIS,PERIOD,APOGEE,PERIGEE,DECAYED
53151.0,STARLINK-4040,PAYLOAD,2023-03-22 21:47:33,15.08901624,6.86e-05,53.2175,344.9181,118.4367,241.6694,0.0028541,0.00045505,0.0,0 STARLINK-4040,1 53151U 22083V   23081.90802146  .00045505  00000-0  28541-2 0  9995,2 53151  53.2175 344.9181 0000686 118.4367 241.6694 15.08901624 37895,6917.692,95.434,540.032,539.082,0.0
53151.0,STARLINK-4040,PAYLOAD,2023-03-23 02:33:41,15.08896569,0.0001051,53.2168,344.0248,89.4351,270.6762,0.0015085,0.00023839,0.0,0 STARLINK-4040,1 53151U 22083V   23082.10673473  .00023839  00000-0  15085-2 0  9992,2 53151  53.2168 344.0248 0001051  89.4351 270.6762 15.08896569 38552,6917.707,95.434,540.3,538.845,0.0
53151.0,STARLINK-4040,PAYLOAD,2023-03-23 15:16:47,15.08855417,0.0001093,53.2169,341.6475,100.6358,259.4757,0.0012285,0.00019326,0.0,0 STARLINK-4040,1 53151U 22083V   23082.63665939  .00019326  00000-0  12285-2 0  9993,2 53151  53.2169 341.6475 0001093 100.6358 259.4757 15.08855417 38632,6917.833,95.437,540.454,538.942,0.0
53151.0,STARLINK-4040,PAYLOAD,2023-03-23 21:38:19,15.08847475,0.0001063,53.2167,340.4559,70.2386,289.8721,0.0013105,0.00020634,0.0,0 STARLINK-4040,1 53151U 22083V   23082.90161992  .00020634  00000-0  13105-2 0  9999,2 53151  53.2167 340.4559 0001063  70.2386 289.8721 15.08847475 38048,6917.858,95.437,540.458,538.987,0.0
53151.0,STARLINK-4040,PAYLOAD,2023-03-24 02:24:29,15.08873915,0.0001275,53.2161,339.5633,62.2236,297.8886,0.0034617,0.00055289,0.0,0 STARLINK-4040,1 53151U 22083V   23083.10033754  .00055289  00000-0  34617-2 0  9991,2 53151  53.2161 339.5633 0001275  62.2236 297.8886 15.08873915 38706,6917.777,95.435,540.524,538.76,0.0
53151.0,STARLINK-4040,PAYLOAD,2023-03-24 21:29:05,15.08900098,0.0001117,53.2161,335.9942,68.3901,291.721,0.0024693,0.00039295,0.0,0 STARLINK-4040,1 53151U 22083V   23083.89520276  .00039295  00000-0  24693-2 0  9999,2 53151  53.2161 335.9942 0001117  68.3901 291.7210 15.08900098 38820,6917.697,95.434,540.334,538.789,0.0
53151.0,STARLINK-4040,PAYLOAD,2023-03-24 23:04:28,15.08903205,0.0001276,53.2162,335.6987,65.548,294.5646,0.0024199,0.00038502,0.0,0 STARLINK-4040,1 53151U 22083V   23083.96144086  .00038502  00000-0  24199-2 0  9999,2 53151  53.2162 335.6987 0001276  65.5480 294.5646 15.08903205 38203,6917.687,95.434,540.435,538.67,0.0
53151.0,STARLINK-4040,PAYLOAD,2023-03-25 19:44:30,15.08842141,0.0001205,53.2164,331.8317,92.6488,267.4642,0.0028016,0.00044584,0.0,0 STARLINK-4040,1 53151U 22083V   23084.82257573  .00044584  00000-0  28016-2 0  9990,2 53151  53.2164 331.8317 0001205  92.6488 267.4642 15.08842141 38960,6917.874,95.437,540.572,538.905,0.0
53151.0,STARLINK-4040,PAYLOAD,2023-03-25 21:19:53,15.08791549,0.0001176,53.2167,331.5348,88.2402,271.8725,0.0026396,0.00041915,0.0,0 STARLINK-4040,1 53151U 22083V   23084.88881732  .00041915  00000-0  26396-2 0  9990,2 53151  53.2167 331.5348 0001176  88.2402 271.8725 15.08791549 38346,6918.028,95.441,540.707,539.08,0.0
53151.0,STARLINK-4040,PAYLOAD,2023-03-25 22:55:17,15.08786771,0.000128,53.2168,331.2376,89.2245,270.8894,0.0027975,0.0004445,0.0,0 STARLINK-4040,1 53151U 22083V   23084.95506017  .00044450  00000-0  27975-2 0  9999,2 53151  53.2168 331.2376 0001280  89.2245 270.8894 15.08786771 38984,6918.043,95.441,540.794,539.023,0.0
53151.0,STARLINK-4040,PAYLOAD,2023-03-26 19:35:19,15.08838945,0.0001303,53.2173,327.373,102.0768,258.037,0.0018039,0.00028537,0.0,0 STARLINK-4040,1 53151U 22083V   23085.81619450  .00028537  00000-0  18039-2 0  9990,2 53151  53.2173 327.3730 0001303 102.0768 258.0370 15.08838945 39114,6917.884,95.438,540.65,538.847,0.0
53151.0,STARLINK-4040,PAYLOAD,2023-03-26 22:46:05,15.08849713,0.0001402,53.2178,326.7783,94.5878,265.5274,0.0020611,0.00032676,0.0,0 STARLINK-4040,1 53151U 22083V   23085.94867419  .00032676  00000-0  20611-2 0  9992,2 53151  53.2178 326.7783 0001402  94.5878 265.5274 15.08849713 38500,6917.851,95.437,540.686,538.746,0.0
53151.0,STARLINK-4040,PAYLOAD,2023-03-27 01:56:51,15.08862114,0.0001329,53.2173,326.1817,91.0964,269.018,0.002289,0.00036352,0.0,0 STARLINK-4040,1 53151U 22083V   23086.08115243  .00036352  00000-0  22890-2 0  9995,2 53151  53.2173 326.1817 0001329  91.0964 269.0180 15.08862114 39150,6917.813,95.436,540.597,538.758,0.0
53151.0,STARLINK-4040,PAYLOAD,2023-03-27 21:01:28,15.08870214,0.000154,53.2176,322.6099,116.8092,243.3058,0.0013647,0.00021516,0.0,0 STARLINK-4040,1 53151U 22083V   23086.87602389  .00021516  00000-0  13647-2 0  9990,2 53151  53.2176 322.6099 0001540 116.8092 243.3058 15.08870214 39271,6917.788,95.436,540.718,538.588,0.0
53151.0,STARLINK-4040,PAYLOAD,2023-03-27 22:36:51,15.08876684,9.71e-05,53.2172,322.3155,82.9843,277.126,0.0017812,0.00028202,0.0,0 STARLINK-4040,1 53151U 22083V   23086.94226366  .00028202  00000-0  17812-2 0  9992,2 53151  53.2172 322.3155 0000971  82.9843 277.1260 15.08876684 38659,6917.768,95.435,540.305,538.962,0.0
53151.0,STARLINK-4040,PAYLOAD,2023-03-28 14:30:42,15.08860384,0.000243,53.2173,319.3419,95.3201,264.8068,0.0014472,0.00022833,0.0,0 STARLINK-4040,1 53151U 22083V   23087.60466307  .00022833  00000-0  14472-2 0  9990,2 53151  53.2173 319.3419 0002430  95.3201 264.8068 15.08860384 38757,6917.818,95.436,541.364,538.002,0.0
53151.0,STARLINK-4040,PAYLOAD,2023-03-28 20:52:15,15.08845105,0.0001288,53.2172,318.1515,98.3295,261.7844,0.0002641,3.918e-05,0.0,0 STARLINK-4040,1 53151U 22083V   23087.86962214  .00003918  00000-0  26410-3 0  9995,2 53151  53.2172 318.1515 0001288  98.3295 261.7844 15.08845105 38792,6917.865,95.437,540.621,538.839,0.0
53151.0,STARLINK-4040,PAYLOAD,2023-03-28 22:27:38,15.08849653,0.0001107,53.2171,317.8554,75.5368,284.5746,0.00019429,2.806e-05,0.0,0 STARLINK-4040,1 53151U 22083V   23087.93586192  .00002806  00000-0  19429-3 0  9997,2 53151  53.2171 317.8554 0001107  75.5368 284.5746 15.08849653 39436,6917.851,95.437,540.482,538.95,0.0
53151.0,STARLINK-4040,PAYLOAD,2023-03-29 01:38:24,15.08853037,0.0001143,53.2172,317.2604,79.3062,280.8059,0.00030568,4.582e-05,0.0,0 STARLINK-4040,1 53151U 22083V   23088.06834033  .00004582  00000-0  30568-3 0  9992,2 53151  53.2172 317.2604 0001143  79.3062 280.8059 15.08853037 38829,6917.841,95.437,540.496,538.915,0.0
53151.0,STARLINK-4040,PAYLOAD,2023-03-29 19:07:39,15.08836912,0.0001088,53.2158,313.9893,88.3715,271.7402,0.00021483,3.133e-05,0.0,0 STARLINK-4040,1 53151U 22083V   23088.79698546  .00003133  00000-0  21483-3 0  9996,2 53151  53.2158 313.9893 0001088  88.3715 271.7402 15.08836912 39565,6917.89,95.438,540.507,539.002,0.0
53151.0,STARLINK-4040,PAYLOAD,2023-03-29 20:43:02,15.08844073,0.0001204,53.2159,313.6923,113.8946,246.2172,0.00044237,6.76e-05,0.0,0 STARLINK-4040,1 53151U 22083V   23088.86322390  .00006760  00000-0  44237-3 0  9996,2 53151  53.2159 313.6923 0001204 113.8946 246.2172 15.08844073 38946,6917.868,95.437,540.566,538.9,0.0
53151.0,STARLINK-4040,PAYLOAD,2023-03-30 18:58:26,15.0884422,0.0001152,53.2162,309.5312,88.1147,271.9977,0.00035845,5.422e-05,0.0,0 STARLINK-4040,1 53151U 22083V   23089.79058632  .00005422  00000-0  35845-3 0  9993,2 53151  53.2162 309.5312 0001152  88.1147 271.9977 15.08844220 39083,6917.867,95.437,540.529,538.936,0.0
53151.0,STARLINK-4040,PAYLOAD,2023-03-30 23:44:35,15.08852383,0.0001271,53.2165,308.6379,86.1732,273.9406,0.00055946,8.63e-05,0.0,0 STARLINK-4040,1 53151U 22083V   23089.98930417  .00008630  00000-0  55946-3 0  9992,2 53151  53.2165 308.6379 0001271  86.1732 273.9406 15.08852383 39740,6917.843,95.437,540.587,538.828,0.0
53151.0,STARLINK-4040,PAYLOAD,2023-03-31 20:24:36,15.08846971,0.0001056,53.2171,304.7717,93.7682,266.3431,0.00038054,5.775e-05,0.0,0 STARLINK-4040,1 53151U 22083V   23090.85042478  .00005775  00000-0  38054-3 0  9999,2 53151  53.2171 304.7717 0001056  93.7682 266.3431 15.08846971 39873,6917.859,95.437,540.455,538.994,0.0
53151.0,STARLINK-4040,PAYLOAD,2023-03-31 23:35:22,15.08850369,0.0001146,53.2171,304.1767,74.1811,285.9307,0.0003156,4.74e-05,0.0,0 STARLINK-4040,1 53151U 22083V   23090.98290340  .00004740  00000-0  31560-3 0  9992,2 53151  53.2171 304.1767 0001146  74.1811 285.9307 15.08850369 39267,6917.849,95.437,540.506,538.921,0.0
53151.0,STARLINK-4040,PAYLOAD,2023-04-01 20:15:24,15.08840323,8.6e-05,53.2164,300.3124,83.0416,277.0674,0.00019632,2.838e-05,0.0,0 STARLINK-4040,1 53151U 22083V   23091.84403135  .00002838  00000-0  19632-3 0  9998,2 53151  53.2164 300.3124 0000860  83.0416 277.0674 15.08840323 40020,6917.879,95.438,540.339,539.149,0.0
53151.0,STARLINK-4040,PAYLOAD,2023-04-02 13:44:38,15.08844823,9.51e-05,53.2158,297.041,71.7258,288.3838,0.0002766,4.118e-05,0.0,0 STARLINK-4040,1 53151U 22083V   23092.57267061  .00004118  00000-0  27660-3 0  9998,2 53151  53.2158 297.0410 0000951  71.7258 288.3838 15.08844823 39509,6917.866,95.437,540.389,539.073,0.0
53151.0,STARLINK-4040,PAYLOAD,2023-04-02 20:06:11,15.08850703,0.0001037,53.216,295.8515,77.6931,282.4177,0.0004341,6.63e-05,0.0,0 STARLINK-4040,1 53151U 22083V   23092.83762881  .00006630  00000-0  43410-3 0  9999,2 53151  53.2160 295.8515 0001037  77.6931 282.4177 15.08850703 39542,6917.848,95.437,540.43,538.995,0.0
53151.0,STARLINK-4040,PAYLOAD,2023-04-03 13:35:25,15.08844601,0.0001082,53.2157,292.5811,72.9783,287.1328,0.00022781,3.34e-05,0.0,0 STARLINK-4040,1 53151U 22083V   23093.56627117  .00003340  00000-0  22781-3 0  9995,2 53151  53.2157 292.5811 0001082  72.9783 287.1328 15.08844601 39656,6917.866,95.437,540.48,538.983,0.0
53151.0,STARLINK-4040,PAYLOAD,2023-04-04 13:26:12,15.08843844,0.0001118,53.2159,288.12,74.9778,285.1338,0.00013008,1.783e-05,0.0,0 STARLINK-4040,1 53151U 22083V   23094.55987105  .00001783  00000-0  13008-3 0  9992,2 53151  53.2159 288.1200 0001118  74.9778 285.1338 15.08843844 40432,6917.869,95.437,540.507,538.96,0.0
